[{"OBJECT_NAME":"STARLINK-32508","OBJECT_ID":"2024-224V","EPOCH":"2026-03-09T07:43:38.338464","MEAN_MOTION":15.27569462,"ECCENTRICITY":0.00010576,"INCLINATION":43.0002,"RA_OF_ASC_NODE":160.1881,"ARG_OF_PERICENTER":252.6792,"MEAN_ANOMALY":107.3944,"EPHEMERIS_TYPE":0,"CLASSIFICATION_TYPE":"U","NORAD_CAT_ID":62158,"ELEMENT_SET_NO":999,"REV_AT_EPOCH":7242,"BSTAR":0.00088221279,"MEAN_MOTION_DOT":0.00024086,"MEAN_MOTION_DDOT":0},{"OBJECT_NAME":"OBJECT BC","OBJECT_ID":"2025-313BC","EPOCH":"2026-03-09T04:33:08.504064","MEAN_MOTION":15.29126358,"ECCENTRICITY":0.00084789,"INCLINATION":97.3985,"RA_OF_ASC_NODE":144.811,"ARG_OF_PERICENTER":328.9209,"MEAN_ANOMALY":31.1528,"EPHEMERIS_TYPE":0,"CLASSIFICATION_TYPE":"U","NORAD_CAT_ID":67298,"ELEMENT_SET_NO":999,"REV_AT_EPOCH":789,"BSTAR":0.0026410397,"MEAN_MOTION_DOT":0.00075331,"MEAN_MOTION_DDOT":0}]
