STARLINK-32508          
1 62158U 24224V   26068.32197151  .00024086  00000+0  88221-3 0  9990
2 62158  43.0002 160.1881 0001057 252.6792 107.3944 15.27569462 72424
2025-313BC              
1 67298U 25313BC  26068.18968176  .00075331  00000+0  26410-2 0  9997
2 67298  97.3985 144.8110 0008478 328.9209  31.1528 15.29126358  7890
